start=new Date('2021-11-07T00:00:00.000Z').valueOf();
sats=[{"OBJECT_TYPE":"PAYLOAD","INCLINATION":"53.0540","MEAN_MOTION":"15.06399425","GP_ID":"189130935","NORAD_CAT_ID":"47994","RCS_SIZE":"LARGE","BSTAR":"0.00052800000000","ELEMENT_SET_NO":"999","SEMIMAJOR_AXIS":"6925.350","OBJECT_NAME":"STARLINK-2290","MEAN_ELEMENT_THEORY":"SGP4","PERIAPSIS":"546.120","FILE":"3206165","REV_AT_EPOCH":"3607","COUNTRY_CODE":"US","MEAN_MOTION_DOT":"0.00007592","TLE_LINE2":"2 47994  53.0540 223.3117 0001581  64.3539 295.7613 15.06399425 36079","CENTER_NAME":"EARTH","EPHEMERIS_TYPE":"0","RA_OF_ASC_NODE":"223.3117","SITE":"AFETR","EPOCH":"2021-11-06T12:00:57.971808","TIME_SYSTEM":"UTC","ECCENTRICITY":"0.00015810","TLE_LINE1":"1 47994U 21024T   21310.50067097  .00007592  00000-0  52800-3 0  9994","APOAPSIS":"548.310","ARG_OF_PERICENTER":"64.3539","CLASSIFICATION_TYPE":"U","LAUNCH_DATE":"2021-03-24","DECAY_DATE":null,"PERIOD":"95.592","REF_FRAME":"TEME","MEAN_ANOMALY":"295.7613","OBJECT_ID":"2021-024T","MEAN_MOTION_DDOT":"0.0000000000000"},{"INCLINATION":"53.0666","OBJECT_TYPE":"PAYLOAD","MEAN_MOTION":"15.05553974","NORAD_CAT_ID":"47995","RCS_SIZE":"MEDIUM","GP_ID":"189103459","BSTAR":"-0.00058208000000","SEMIMAJOR_AXIS":"6927.943","ELEMENT_SET_NO":"999","OBJECT_NAME":"STARLINK-2309","FILE":"3205875","COUNTRY_CODE":"US","REV_AT_EPOCH":"3613","MEAN_ELEMENT_THEORY":"SGP4","PERIAPSIS":"548.769","RA_OF_ASC_NODE":"187.4492","EPHEMERIS_TYPE":"0","TLE_LINE2":"2 47995  53.0666 187.4492 0001499  64.7298 295.3846 15.05553974 36130","MEAN_MOTION_DOT":"-0.00008743","CENTER_NAME":"EARTH","TIME_SYSTEM":"UTC","EPOCH":"2021-11-06T16:09:50.721408","SITE":"AFETR","APOAPSIS":"550.846","ECCENTRICITY":"0.00014990","TLE_LINE1":"1 47995U 21024U   21310.67350372 -.00008743  00000-0 -58208-3 0  9993","CLASSIFICATION_TYPE":"U","ARG_OF_PERICENTER":"64.7298","PERIOD":"95.646","DECAY_DATE":null,"LAUNCH_DATE":"2021-03-24","REF_FRAME":"TEME","MEAN_ANOMALY":"295.3846","OBJECT_ID":"2021-024U","MEAN_MOTION_DDOT":"0.0000000000000"},{"DECAY_DATE":null,"PERIOD":"92.173","LAUNCH_DATE":"2021-03-24","REF_FRAME":"TEME","MEAN_ANOMALY":"160.6649","OBJECT_ID":"2021-024V","MEAN_MOTION_DDOT":"0.0000000000000","SITE":"AFETR","TIME_SYSTEM":"UTC","EPOCH":"2021-11-06T16:00:00.999936","ECCENTRICITY":"0.00012490","TLE_LINE1":"1 47996U 21024V   21310.66667824 -.00679809  00000-0 -82134-2 0  9997","APOAPSIS":"381.934","CLASSIFICATION_TYPE":"U","ARG_OF_PERICENTER":"65.7908","BSTAR":"-0.00821340000000","SEMIMAJOR_AXIS":"6759.225","ELEMENT_SET_NO":"999","OBJECT_NAME":"STARLINK-2260","MEAN_ELEMENT_THEORY":"SGP4","PERIAPSIS":"380.246","FILE":"3206165","REV_AT_EPOCH":"367","COUNTRY_CODE":"US","MEAN_MOTION_DOT":"-0.00679809","TLE_LINE2":"2 47996  53.0438 155.2581 0001249  65.7908 160.6649 15.62274721  3673","CENTER_NAME":"EARTH","EPHEMERIS_TYPE":"0","RA_OF_ASC_NODE":"155.2581","OBJECT_TYPE":"PAYLOAD","INCLINATION":"53.0438","MEAN_MOTION":"15.62274721","GP_ID":"189129934","NORAD_CAT_ID":"47996","RCS_SIZE":"LARGE"},{"INCLINATION":"53.0557","OBJECT_TYPE":"PAYLOAD","MEAN_MOTION":"15.06407057","RCS_SIZE":"LARGE","NORAD_CAT_ID":"47997","GP_ID":"189103469","BSTAR":"0.00023860000000","OBJECT_NAME":"STARLINK-2266","ELEMENT_SET_NO":"999","SEMIMAJOR_AXIS":"6925.327","REV_AT_EPOCH":"3565","COUNTRY_CODE":"US","FILE":"3205887","PERIAPSIS":"546.188","MEAN_ELEMENT_THEORY":"SGP4","RA_OF_ASC_NODE":"222.2096","EPHEMERIS_TYPE":"0","CENTER_NAME":"EARTH","TLE_LINE2":"2 47997  53.0557 222.2096 0001449  58.6942 301.4189 15.06407057 35658","MEAN_MOTION_DOT":"0.00003275","TIME_SYSTEM":"UTC","EPOCH":"2021-11-06T17:56:35.206944","SITE":"AFETR","APOAPSIS":"548.195","TLE_LINE1":"1 47997U 21024W   21310.74762971  .00003275  00000-0  23860-3 0  9994","ECCENTRICITY":"0.00014490","CLASSIFICATION_TYPE":"U","ARG_OF_PERICENTER":"58.6942","MEAN_ANOMALY":"301.4189","LAUNCH_DATE":"2021-03-24","DECAY_DATE":null,"PERIOD":"95.592","REF_FRAME":"TEME","OBJECT_ID":"2021-024W","MEAN_MOTION_DDOT":"0.0000000000000"},{"RCS_SIZE":"LARGE","NORAD_CAT_ID":"47998","GP_ID":"189103786","MEAN_MOTION":"15.06348177","INCLINATION":"53.0496","OBJECT_TYPE":"PAYLOAD","RA_OF_ASC_NODE":"196.9780","EPHEMERIS_TYPE":"0","TLE_LINE2":"2 47998  53.0496 196.9780 0002059  71.6020 288.5193 15.06348177 36005","MEAN_MOTION_DOT":"-0.00015445","CENTER_NAME":"EARTH","FILE":"3205887","COUNTRY_CODE":"US","REV_AT_EPOCH":"3600","MEAN_ELEMENT_THEORY":"SGP4","PERIAPSIS":"545.946","ELEMENT_SET_NO":"999","SEMIMAJOR_AXIS":"6925.507","OBJECT_NAME":"STARLINK-2296","BSTAR":"-0.00102160000000","ARG_OF_PERICENTER":"71.6020","CLASSIFICATION_TYPE":"U","APOAPSIS":"548.798","ECCENTRICITY":"0.00020590","TLE_LINE1":"1 47998U 21024X   21310.79875196 -.00015445  00000-0 -10216-2 0  9998","EPOCH":"2021-11-06T19:10:12.169344","TIME_SYSTEM":"UTC","SITE":"AFETR","MEAN_MOTION_DDOT":"0.0000000000000","OBJECT_ID":"2021-024X","LAUNCH_DATE":"2021-03-24","DECAY_DATE":null,"REF_FRAME":"TEME","PERIOD":"95.595","MEAN_ANOMALY":"288.5193"},{"INCLINATION":"53.0521","OBJECT_TYPE":"PAYLOAD","MEAN_MOTION":"15.06364770","NORAD_CAT_ID":"47999","RCS_SIZE":"LARGE","GP_ID":"189105910","BSTAR":"-0.00037716000000","ELEMENT_SET_NO":"999","SEMIMAJOR_AXIS":"6925.457","OBJECT_NAME":"STARLINK-2218","FILE":"3205972","REV_AT_EPOCH":"3644","COUNTRY_CODE":"US","MEAN_ELEMENT_THEORY":"SGP4","PERIAPSIS":"546.074","EPHEMERIS_TYPE":"0","RA_OF_ASC_NODE":"166.4397","TLE_LINE2":"2 47999  53.0521 166.4397 0001801  47.4214  17.4940 15.06364770 36445","MEAN_MOTION_DOT":"-0.00005890","CENTER_NAME":"EARTH","EPOCH":"2021-11-06T22:00:00.999936","TIME_SYSTEM":"UTC","SITE":"AFETR","APOAPSIS":"548.569","ECCENTRICITY":"0.00018010","TLE_LINE1":"1 47999U 21024Y   21310.91667824 -.00005890  00000-0 -37716-3 0  9998","ARG_OF_PERICENTER":"47.4214","CLASSIFICATION_TYPE":"U","DECAY_DATE":null,"REF_FRAME":"TEME","LAUNCH_DATE":"2021-03-24","PERIOD":"95.594","MEAN_ANOMALY":"17.4940","OBJECT_ID":"2021-024Y","MEAN_MOTION_DDOT":"0.0000000000000"},{"GP_ID":"189130434","RCS_SIZE":"LARGE","NORAD_CAT_ID":"48000","OBJECT_TYPE":"PAYLOAD","INCLINATION":"53.0443","MEAN_MOTION":"15.48028392","PERIAPSIS":"421.578","MEAN_ELEMENT_THEORY":"SGP4","REV_AT_EPOCH":"366","COUNTRY_CODE":"US","FILE":"3206165","CENTER_NAME":"EARTH","TLE_LINE2":"2 48000  53.0443 156.5384 0001350  54.3381 300.6871 15.48028392  3660","MEAN_MOTION_DOT":"-0.00723517","RA_OF_ASC_NODE":"156.5384","EPHEMERIS_TYPE":"0","BSTAR":"-0.01470100000000","OBJECT_NAME":"STARLINK-2270","SEMIMAJOR_AXIS":"6800.631","ELEMENT_SET_NO":"999","ARG_OF_PERICENTER":"54.3381","CLASSIFICATION_TYPE":"U","SITE":"AFETR","EPOCH":"2021-11-06T16:00:00.999936","TIME_SYSTEM":"UTC","TLE_LINE1":"1 48000U 21024Z   21310.66667824 -.00723517  00000-0 -14701-1 0  9994","ECCENTRICITY":"0.00013500","APOAPSIS":"423.414","OBJECT_ID":"2021-024Z","MEAN_MOTION_DDOT":"0.0000000000000","MEAN_ANOMALY":"300.6871","PERIOD":"93.022","DECAY_DATE":null,"LAUNCH_DATE":"2021-03-24","REF_FRAME":"TEME"},{"RCS_SIZE":"MEDIUM","NORAD_CAT_ID":"48001","GP_ID":"189130684","INCLINATION":"53.0435","OBJECT_TYPE":"PAYLOAD","MEAN_MOTION":"15.80528636","REV_AT_EPOCH":"367","COUNTRY_CODE":"US","FILE":"3206165","PERIAPSIS":"327.925","MEAN_ELEMENT_THEORY":"SGP4","RA_OF_ASC_NODE":"154.7339","EPHEMERIS_TYPE":"0","CENTER_NAME":"EARTH","TLE_LINE2":"2 48001  53.0435 154.7339 0001524  48.8941  41.9057 15.80528636  3679","MEAN_MOTION_DOT":"0.00703195","BSTAR":"0.00333610000000","OBJECT_NAME":"STARLINK-2262","SEMIMAJOR_AXIS":"6707.082","ELEMENT_SET_NO":"999","ARG_OF_PERICENTER":"48.8941","CLASSIFICATION_TYPE":"U","TIME_SYSTEM":"UTC","EPOCH":"2021-11-06T16:00:00.999936","SITE":"AFETR","APOAPSIS":"329.969","TLE_LINE1":"1 48001U 21024AA  21310.66667824  .00703195  00000-0  33361-2 0  9997","ECCENTRICITY":"0.00015240","OBJECT_ID":"2021-024AA","MEAN_MOTION_DDOT":"0.0000000000000","MEAN_ANOMALY":"41.9057","REF_FRAME":"TEME","DECAY_DATE":null,"LAUNCH_DATE":"2021-03-24","PERIOD":"91.109"},{"MEAN_MOTION":"15.06351274","OBJECT_TYPE":"PAYLOAD","INCLINATION":"53.0527","GP_ID":"189103476","RCS_SIZE":"LARGE","NORAD_CAT_ID":"48002","ELEMENT_SET_NO":"999","SEMIMAJOR_AXIS":"6925.498","OBJECT_NAME":"STARLINK-2265","BSTAR":"0.00002773000000","TLE_LINE2":"2 48002  53.0527 171.4383 0002158  58.4698  38.9362 15.06351274 36375","MEAN_MOTION_DOT":"0.00000131","CENTER_NAME":"EARTH","EPHEMERIS_TYPE":"0","RA_OF_ASC_NODE":"171.4383","MEAN_ELEMENT_THEORY":"SGP4","PERIAPSIS":"545.868","FILE":"3205888","COUNTRY_CODE":"US","REV_AT_EPOCH":"3637","ECCENTRICITY":"0.00021580","TLE_LINE1":"1 48002U 21024AB  21310.91667824  .00000131  00000-0  27730-4 0  9991","APOAPSIS":"548.857","SITE":"AFETR","EPOCH":"2021-11-06T22:00:00.999936","TIME_SYSTEM":"UTC","CLASSIFICATION_TYPE":"U","ARG_OF_PERICENTER":"58.4698","LAUNCH_DATE":"2021-03-24","DECAY_DATE":null,"REF_FRAME":"TEME","PERIOD":"95.595","MEAN_ANOMALY":"38.9362","MEAN_MOTION_DDOT":"0.0000000000000","OBJECT_ID":"2021-024AB"},{"INCLINATION":"53.0548","OBJECT_TYPE":"PAYLOAD","MEAN_MOTION":"15.06390912","NORAD_CAT_ID":"48003","RCS_SIZE":"LARGE","GP_ID":"189131686","BSTAR":"-0.00103630000000","ELEMENT_SET_NO":"999","SEMIMAJOR_AXIS":"6925.376","OBJECT_NAME":"STARLINK-2263","FILE":"3206165","COUNTRY_CODE":"US","REV_AT_EPOCH":"3569","MEAN_ELEMENT_THEORY":"SGP4","PERIAPSIS":"546.081","RA_OF_ASC_NODE":"249.1176","EPHEMERIS_TYPE":"0","TLE_LINE2":"2 48003  53.0548 249.1176 0001675  59.1334 300.9819 15.06390912 35695","MEAN_MOTION_DOT":"-0.00015680","CENTER_NAME":"EARTH","TIME_SYSTEM":"UTC","EPOCH":"2021-11-06T07:40:12.522432","SITE":"AFETR","APOAPSIS":"548.401","ECCENTRICITY":"0.00016750","TLE_LINE1":"1 48003U 21024AC  21310.31958938 -.00015680  00000-0 -10363-2 0  9994","CLASSIFICATION_TYPE":"U","ARG_OF_PERICENTER":"59.1334","PERIOD":"95.593","DECAY_DATE":null,"LAUNCH_DATE":"2021-03-24","REF_FRAME":"TEME","MEAN_ANOMALY":"300.9819","OBJECT_ID":"2021-024AC","MEAN_MOTION_DDOT":"0.0000000000000"}];
